{
  "type": "FeatureCollection",
  "features": [
    {
      "type": "Feature",
      "properties": {
        "norad_id": 30726,
        "name": "FENGYUN 1C DEB",
        "group": "fengyun-1c-debris",
        "lat": 31.247403767479415,
        "lon": 173.74427918154254,
        "alt_km": 848.8927863154904,
        "timestamp": "2025-12-12T07:43:20.792114+00:00",
        "meta_object_name": "FENGYUN 1C DEB",
        "meta_object_id": "1999-025ASL",
        "meta_epoch": "2025-12-11T11:20:51.108000",
        "meta_mean_motion": 14.09293315,
        "meta_eccentricity": 0.00782443,
        "meta_inclination": 99.2682,
        "meta_ra_of_asc_node": 347.1852,
        "meta_arg_of_pericenter": 229.739,
        "meta_mean_anomaly": 294.5561,
        "meta_ephemeris_type": 0,
        "meta_classification_type": "U",
        "meta_norad_cat_id": 30726,
        "meta_element_set_no": 999,
        "meta_rev_at_epoch": 95965,
        "meta_bstar": 0.0020072678,
        "meta_mean_motion_dot": 3.549e-05,
        "meta_mean_motion_ddot": 0,
        "tle_line1": "1 30726U 99025ASL 25345.47281375  .00003549  00000+0  20073-2 0  9993",
        "tle_line2": "2 30726  99.2682 347.1852 0078244 229.7390 294.5561 14.09293315959656"
      },
      "geometry": {
        "type": "Point",
        "coordinates": [
          173.74427918154254,
          31.247403767479415
        ]
      }
    },
    {
      "type": "Feature",
      "properties": {
        "norad_id": 30728,
        "name": "FENGYUN 1C DEB",
        "group": "fengyun-1c-debris",
        "lat": 34.75953419544996,
        "lon": -12.958451843950844,
        "alt_km": 762.8849607237062,
        "timestamp": "2025-12-12T07:43:20.792124+00:00",
        "meta_object_name": "FENGYUN 1C DEB",
        "meta_object_id": "1999-025ASN",
        "meta_epoch": "2025-12-11T23:07:26.701536",
        "meta_mean_motion": 14.23473745,
        "meta_eccentricity": 0.00995502,
        "meta_inclination": 98.5295,
        "meta_ra_of_asc_node": 352.6722,
        "meta_arg_of_pericenter": 84.2275,
        "meta_mean_anomaly": 277.0243,
        "meta_ephemeris_type": 0,
        "meta_classification_type": "U",
        "meta_norad_cat_id": 30728,
        "meta_element_set_no": 999,
        "meta_rev_at_epoch": 97678,
        "meta_bstar": 0.00011540035,
        "meta_mean_motion_dot": 2.34e-06,
        "meta_mean_motion_ddot": 0,
        "tle_line1": "1 30728U 99025ASN 25345.96350349  .00000234  00000+0  11540-3 0  9995",
        "tle_line2": "2 30728  98.5295 352.6722 0099550  84.2275 277.0243 14.23473745976785"
      },
      "geometry": {
        "type": "Point",
        "coordinates": [
          -12.958451843950844,
          34.75953419544996
        ]
      }
    },
    {
      "type": "Feature",
      "properties": {
        "norad_id": 30730,
        "name": "FENGYUN 1C DEB",
        "group": "fengyun-1c-debris",
        "lat": -29.26509128441459,
        "lon": 30.326368706212474,
        "alt_km": 802.6002893449222,
        "timestamp": "2025-12-12T07:43:20.792134+00:00",
        "meta_object_name": "FENGYUN 1C DEB",
        "meta_object_id": "1999-025ASQ",
        "meta_epoch": "2025-12-11T14:02:21.807168",
        "meta_mean_motion": 14.25466729,
        "meta_eccentricity": 0.00784586,
        "meta_inclination": 98.6188,
        "meta_ra_of_asc_node": 24.7268,
        "meta_arg_of_pericenter": 52.6842,
        "meta_mean_anomaly": 99.8256,
        "meta_ephemeris_type": 0,
        "meta_classification_type": "U",
        "meta_norad_cat_id": 30730,
        "meta_element_set_no": 999,
        "meta_rev_at_epoch": 96989,
        "meta_bstar": 0.0014510887,
        "meta_mean_motion_dot": 3.498e-05,
        "meta_mean_motion_ddot": 0,
        "tle_line1": "1 30730U 99025ASQ 25345.58497462  .00003498  00000+0  14511-2 0  9999",
        "tle_line2": "2 30730  98.6188  24.7268 0078458  52.6842  99.8256 14.25466729969899"
      },
      "geometry": {
        "type": "Point",
        "coordinates": [
          30.326368706212474,
          -29.26509128441459
        ]
      }
    },
    {
      "type": "Feature",
      "properties": {
        "norad_id": 30731,
        "name": "FENGYUN 1C DEB",
        "group": "fengyun-1c-debris",
        "lat": 64.08635321717894,
        "lon": -95.56148711919862,
        "alt_km": 753.5303178690183,
        "timestamp": "2025-12-12T07:43:20.792148+00:00",
        "meta_object_name": "FENGYUN 1C DEB",
        "meta_object_id": "1999-025ASR",
        "meta_epoch": "2025-12-11T21:30:03.803904",
        "meta_mean_motion": 14.41749213,
        "meta_eccentricity": 0.00148169,
        "meta_inclination": 98.8592,
        "meta_ra_of_asc_node": 65.273,
        "meta_arg_of_pericenter": 248.1015,
        "meta_mean_anomaly": 177.1853,
        "meta_ephemeris_type": 0,
        "meta_classification_type": "U",
        "meta_norad_cat_id": 30731,
        "meta_element_set_no": 999,
        "meta_rev_at_epoch": 97344,
        "meta_bstar": 0.0035353078,
        "meta_mean_motion_dot": 0.00011525,
        "meta_mean_motion_ddot": 0,
        "tle_line1": "1 30731U 99025ASR 25345.89587736  .00011525  00000+0  35353-2 0  9995",
        "tle_line2": "2 30731  98.8592  65.2730 0014816 248.1015 177.1853 14.41749213973446"
      },
      "geometry": {
        "type": "Point",
        "coordinates": [
          -95.56148711919862,
          64.08635321717894
        ]
      }
    },
    {
      "type": "Feature",
      "properties": {
        "norad_id": 30732,
        "name": "FENGYUN 1C DEB",
        "group": "fengyun-1c-debris",
        "lat": -75.40052838143174,
        "lon": 42.96275284866152,
        "alt_km": 858.0840187320055,
        "timestamp": "2025-12-12T07:43:20.792169+00:00",
        "meta_object_name": "FENGYUN 1C DEB",
        "meta_object_id": "1999-025ASS",
        "meta_epoch": "2025-12-11T23:52:07.830048",
        "meta_mean_motion": 14.03900688,
        "meta_eccentricity": 0.01238241,
        "meta_inclination": 98.8046,
        "meta_ra_of_asc_node": 6.131,
        "meta_arg_of_pericenter": 211.1342,
        "meta_mean_anomaly": 216.302,
        "meta_ephemeris_type": 0,
        "meta_classification_type": "U",
        "meta_norad_cat_id": 30732,
        "meta_element_set_no": 999,
        "meta_rev_at_epoch": 96181,
        "meta_bstar": 0.00063882668,
        "meta_mean_motion_dot": 1.036e-05,
        "meta_mean_motion_ddot": 0,
        "tle_line1": "1 30732U 99025ASS 25345.99453507  .00001036  00000+0  63883-3 0  9991",
        "tle_line2": "2 30732  98.8046   6.1310 0123824 211.1342 216.3020 14.03900688961815"
      },
      "geometry": {
        "type": "Point",
        "coordinates": [
          42.96275284866152,
          -75.40052838143174
        ]
      }
    },
    {
      "type": "Feature",
      "properties": {
        "norad_id": 30735,
        "name": "FENGYUN 1C DEB",
        "group": "fengyun-1c-debris",
        "lat": 59.217974768326286,
        "lon": -107.60727361226344,
        "alt_km": 831.48829017761,
        "timestamp": "2025-12-12T07:43:20.792211+00:00",
        "meta_object_name": "FENGYUN 1C DEB",
        "meta_object_id": "1999-025ASV",
        "meta_epoch": "2025-12-11T16:42:14.348160",
        "meta_mean_motion": 14.23953091,
        "meta_eccentricity": 0.00594365,
        "meta_inclination": 98.7629,
        "meta_ra_of_asc_node": 56.7625,
        "meta_arg_of_pericenter": 247.8922,
        "meta_mean_anomaly": 266.195,
        "meta_ephemeris_type": 0,
        "meta_classification_type": "U",
        "meta_norad_cat_id": 30735,
        "meta_element_set_no": 999,
        "meta_rev_at_epoch": 96733,
        "meta_bstar": 0.0025395269,
        "meta_mean_motion_dot": 5.892e-05,
        "meta_mean_motion_ddot": 0,
        "tle_line1": "1 30735U 99025ASV 25345.69599940  .00005892  00000+0  25395-2 0  9992",
        "tle_line2": "2 30735  98.7629  56.7625 0059436 247.8922 266.1950 14.23953091967337"
      },
      "geometry": {
        "type": "Point",
        "coordinates": [
          -107.60727361226344,
          59.217974768326286
        ]
      }
    },
    {
      "type": "Feature",
      "properties": {
        "norad_id": 30736,
        "name": "FENGYUN 1C DEB",
        "group": "fengyun-1c-debris",
        "lat": 70.72563118981087,
        "lon": -129.46771491452193,
        "alt_km": 890.9310450042385,
        "timestamp": "2025-12-12T07:43:20.792228+00:00",
        "meta_object_name": "FENGYUN 1C DEB",
        "meta_object_id": "1999-025ASW",
        "meta_epoch": "2025-12-06T16:01:27.387840",
        "meta_mean_motion": 13.61611053,
        "meta_eccentricity": 0.02800041,
        "meta_inclination": 98.7811,
        "meta_ra_of_asc_node": 19.2067,
        "meta_arg_of_pericenter": 70.187,
        "meta_mean_anomaly": 53.7062,
        "meta_ephemeris_type": 0,
        "meta_classification_type": "U",
        "meta_norad_cat_id": 30736,
        "meta_element_set_no": 999,
        "meta_rev_at_epoch": 92770,
        "meta_bstar": 0.0030781788,
        "meta_mean_motion_dot": 3.026e-05,
        "meta_mean_motion_ddot": 0,
        "tle_line1": "1 30736U 99025ASW 25340.66767810  .00003026  00000+0  30782-2 0  9991",
        "tle_line2": "2 30736  98.7811  19.2067 0280004  70.1870  53.7062 13.61611053927702"
      },
      "geometry": {
        "type": "Point",
        "coordinates": [
          -129.46771491452193,
          70.72563118981087
        ]
      }
    }
  ]
}